City,Client_IP,Country_Name,Latitude,Longitude
Singapore,128.199.234.236,Singapore,1.293099999,103.8557968
Singapore,128.199.234.236,Singapore,1.293099999,103.8557968
Singapore,128.199.234.236,Singapore,1.293099999,103.8557968
Singapore,128.199.234.236,Singapore,1.293099999,103.8557968
Singapore,128.199.234.236,Singapore,1.293099999,103.8557968
Mountain View,66.249.76.236,United States,37.38600159,-122.0838013
Guiyang,222.85.131.87,China,26.58329964,106.7166977
Guiyang,222.85.131.87,China,26.58329964,106.7166977
Shanghai,101.226.168.225,China,31.04560089,121.3996964
Mountain View,66.249.76.225,United States,37.38600159,-122.0838013
Shanghai,101.226.166.230,China,31.04560089,121.3996964
Shanghai,101.226.166.231,China,31.04560089,121.3996964
Zhengzhou,182.118.25.227,China,34.68360138,113.5325012
Zhengzhou,182.118.25.227,China,34.68360138,113.5325012
Zhengzhou,182.118.25.228,China,34.68360138,113.5325012
Zhengzhou,182.118.25.230,China,34.68360138,113.5325012
Zhengzhou,182.118.25.229,China,34.68360138,113.5325012
Hyderabad,122.175.18.128,India,17.37529945,78.47440338
Shanghai,101.226.166.230,China,31.04560089,121.3996964
Shanghai,101.226.166.234,China,31.04560089,121.3996964
Shanghai,101.226.166.233,China,31.04560089,121.3996964
Shanghai,101.226.166.231,China,31.04560089,121.3996964
Shanghai,101.226.166.232,China,31.04560089,121.3996964
Hyderabad,122.175.18.128,India,17.37529945,78.47440338
Beijing,180.76.6.144,China,39.92890167,116.388298
Shanghai,101.226.166.232,China,31.04560089,121.3996964
Shanghai,101.226.166.233,China,31.04560089,121.3996964
Shanghai,101.226.167.249,China,31.04560089,121.3996964
Shanghai,101.226.167.254,China,31.04560089,121.3996964
Shanghai,101.226.167.247,China,31.04560089,121.3996964
Shanghai,101.226.167.252,China,31.04560089,121.3996964
Shanghai,101.226.167.254,China,31.04560089,121.3996964
Shanghai,101.226.167.254,China,31.04560089,121.3996964
Shanghai,101.226.167.250,China,31.04560089,121.3996964
Shanghai,101.226.167.250,China,31.04560089,121.3996964
Mountain View,66.249.76.218,United States,37.38600159,-122.0838013
Shanghai,101.226.167.249,China,31.04560089,121.3996964
Shanghai,101.226.167.248,China,31.04560089,121.3996964
Shenzhen,202.46.62.17,China,22.5333004,114.1333008
Tokyo,119.63.193.130,Japan,35.68500137,139.7514038
Singapore,128.199.234.236,Singapore,1.293099999,103.8557968
Singapore,128.199.234.236,Singapore,1.293099999,103.8557968
Singapore,128.199.234.236,Singapore,1.293099999,103.8557968
Singapore,128.199.234.236,Singapore,1.293099999,103.8557968
Singapore,128.199.234.236,Singapore,1.293099999,103.8557968
Mountain View,66.249.76.215,United States,37.38600159,-122.0838013
,37.188.237.170,Czech Republic,49.75,15.5
Shanghai,101.226.169.196,China,31.04560089,121.3996964
Shanghai,101.226.168.253,China,31.04560089,121.3996964
Shanghai,101.226.169.197,China,31.04560089,121.3996964
Shanghai,101.226.169.196,China,31.04560089,121.3996964
Shanghai,101.226.169.196,China,31.04560089,121.3996964
Shanghai,101.226.169.198,China,31.04560089,121.3996964
Shanghai,101.226.169.198,China,31.04560089,121.3996964
Shanghai,101.226.169.196,China,31.04560089,121.3996964
Shanghai,101.226.168.253,China,31.04560089,121.3996964
Shanghai,101.226.169.196,China,31.04560089,121.3996964
Mountain View,66.249.76.239,United States,37.38600159,-122.0838013
Zhengzhou,182.118.20.180,China,34.68360138,113.5325012
Beijing,119.78.243.4,China,39.92890167,116.388298
Beijing,119.78.243.4,China,39.92890167,116.388298
Beijing,119.78.243.4,China,39.92890167,116.388298
Shanghai,180.153.163.209,China,31.04560089,121.3996964
Mountain View,66.249.76.227,United States,37.38600159,-122.0838013
Beijing,220.181.108.151,China,39.92890167,116.388298
Beijing,220.181.108.86,China,39.92890167,116.388298
Beijing,119.78.243.4,China,39.92890167,116.388298
Zhengzhou,182.118.20.207,China,34.68360138,113.5325012
Zhengzhou,182.118.20.250,China,34.68360138,113.5325012
Zhengzhou,182.118.21.243,China,34.68360138,113.5325012
Zhengzhou,182.118.21.241,China,34.68360138,113.5325012
Zhengzhou,182.118.21.244,China,34.68360138,113.5325012
Beijing,113.31.38.198,China,39.92890167,116.388298
Mountain View,66.249.76.225,United States,37.38600159,-122.0838013
Guangzhou,59.42.126.21,China,23.11669922,113.25
Mountain View,66.249.76.228,United States,37.38600159,-122.0838013
Mountain View,66.249.76.231,United States,37.38600159,-122.0838013
Tracy,108.239.134.115,United States,37.73749924,-121.4257965
,8.35.201.55,United States,38,-97
,8.35.201.48,United States,38,-97
Ashburn,107.22.83.91,United States,39.04370117,-77.48750305
Ashburn,107.22.83.91,United States,39.04370117,-77.48750305
Singapore,128.199.234.236,Singapore,1.293099999,103.8557968
Singapore,128.199.234.236,Singapore,1.293099999,103.8557968
Singapore,128.199.234.236,Singapore,1.293099999,103.8557968
Singapore,128.199.234.236,Singapore,1.293099999,103.8557968
Singapore,128.199.234.236,Singapore,1.293099999,103.8557968
Mountain View,66.249.76.214,United States,37.38600159,-122.0838013
Shanghai,101.226.169.196,China,31.04560089,121.3996964
Mountain View,66.249.76.225,United States,37.38600159,-122.0838013
Mountain View,66.249.76.225,United States,37.38600159,-122.0838013
Beijing,220.181.127.124,China,39.92890167,116.388298
Beijing,119.78.243.4,China,39.92890167,116.388298
Beijing,220.181.132.19,China,39.92890167,116.388298
Mountain View,66.249.76.204,United States,37.38600159,-122.0838013
Singapore,128.199.234.236,Singapore,1.293099999,103.8557968
Singapore,128.199.234.236,Singapore,1.293099999,103.8557968
Singapore,128.199.234.236,Singapore,1.293099999,103.8557968
Singapore,128.199.234.236,Singapore,1.293099999,103.8557968
Singapore,128.199.234.236,Singapore,1.293099999,103.8557968
Zhengzhou,182.118.20.225,China,34.68360138,113.5325012
Mountain View,66.249.76.222,United States,37.38600159,-122.0838013
Mountain View,66.249.76.221,United States,37.38600159,-122.0838013
Zhengzhou,182.118.20.212,China,34.68360138,113.5325012
Zhengzhou,182.118.20.211,China,34.68360138,113.5325012
Zhengzhou,182.118.20.213,China,34.68360138,113.5325012
Zhengzhou,182.118.20.201,China,34.68360138,113.5325012
Zhengzhou,182.118.20.212,China,34.68360138,113.5325012
Zhengzhou,182.118.20.212,China,34.68360138,113.5325012
Zhengzhou,182.118.20.201,China,34.68360138,113.5325012
Zhengzhou,182.118.20.201,China,34.68360138,113.5325012
Zhengzhou,182.118.20.212,China,34.68360138,113.5325012
Zhengzhou,182.118.20.211,China,34.68360138,113.5325012
Mountain View,66.249.76.209,United States,37.38600159,-122.0838013
Singapore,128.199.234.236,Singapore,1.293099999,103.8557968
Singapore,128.199.234.236,Singapore,1.293099999,103.8557968
Singapore,128.199.234.236,Singapore,1.293099999,103.8557968
Singapore,128.199.234.236,Singapore,1.293099999,103.8557968
Singapore,128.199.234.236,Singapore,1.293099999,103.8557968
,91.199.119.254,Israel,31.5,34.75
,91.199.119.254,Israel,31.5,34.75
,91.199.119.254,Israel,31.5,34.75
,91.199.119.254,Israel,31.5,34.75
Charlotte,143.165.48.50,United States,35.22710037,-80.8431015
Mountain View,66.249.76.231,United States,37.38600159,-122.0838013
Raleigh,99.3.64.127,United States,35.84799957,-78.70040131
Raleigh,99.3.64.127,United States,35.84799957,-78.70040131
Mountain View,66.249.76.218,United States,37.38600159,-122.0838013
Singapore,128.199.234.236,Singapore,1.293099999,103.8557968
Singapore,128.199.234.236,Singapore,1.293099999,103.8557968
Singapore,128.199.234.236,Singapore,1.293099999,103.8557968
Singapore,128.199.234.236,Singapore,1.293099999,103.8557968
Singapore,128.199.234.236,Singapore,1.293099999,103.8557968
Mountain View,66.249.76.217,United States,37.38600159,-122.0838013
Mountain View,66.249.76.223,United States,37.38600159,-122.0838013
Camponogara,87.0.176.240,Italy,45.38499832,12.07219982
Mountain View,66.249.76.202,United States,37.38600159,-122.0838013
Shanghai,116.236.236.242,China,31.04560089,121.3996964
Shanghai,116.236.236.242,China,31.04560089,121.3996964
Shanghai,116.236.236.242,China,31.04560089,121.3996964
Singapore,128.199.234.236,Singapore,1.293099999,103.8557968
Singapore,128.199.234.236,Singapore,1.293099999,103.8557968
Singapore,128.199.234.236,Singapore,1.293099999,103.8557968
Singapore,128.199.234.236,Singapore,1.293099999,103.8557968
Singapore,128.199.234.236,Singapore,1.293099999,103.8557968
Singapore,128.199.234.236,Singapore,1.293099999,103.8557968
Singapore,128.199.234.236,Singapore,1.293099999,103.8557968
Singapore,128.199.234.236,Singapore,1.293099999,103.8557968
Singapore,128.199.234.236,Singapore,1.293099999,103.8557968
Mountain View,66.249.76.239,United States,37.38600159,-122.0838013
Mountain View,66.249.76.239,United States,37.38600159,-122.0838013
Mountain View,66.249.76.210,United States,37.38600159,-122.0838013
Mountain View,66.249.76.211,United States,37.38600159,-122.0838013
Mountain View,66.249.76.211,United States,37.38600159,-122.0838013
Mountain View,66.249.76.230,United States,37.38600159,-122.0838013
Bangkok,61.90.20.30,Thailand,13.75399971,100.5014038
Bangkok,61.90.20.30,Thailand,13.75399971,100.5014038
Bangkok,61.90.20.30,Thailand,13.75399971,100.5014038
Bangkok,61.90.20.30,Thailand,13.75399971,100.5014038
Bangkok,61.90.20.30,Thailand,13.75399971,100.5014038
Bangkok,61.90.20.30,Thailand,13.75399971,100.5014038
Bangkok,61.90.20.30,Thailand,13.75399971,100.5014038
Bangkok,61.90.20.30,Thailand,13.75399971,100.5014038
Bangkok,61.90.20.30,Thailand,13.75399971,100.5014038
Bangkok,61.90.20.30,Thailand,13.75399971,100.5014038
Bangkok,61.90.20.30,Thailand,13.75399971,100.5014038
Bangkok,61.90.20.30,Thailand,13.75399971,100.5014038
Bangkok,61.90.20.30,Thailand,13.75399971,100.5014038
Bangkok,61.90.20.30,Thailand,13.75399971,100.5014038
Bangkok,61.90.20.30,Thailand,13.75399971,100.5014038
Bangkok,61.90.20.30,Thailand,13.75399971,100.5014038
Bangkok,61.90.20.30,Thailand,13.75399971,100.5014038
Bangkok,61.90.20.30,Thailand,13.75399971,100.5014038
Bangkok,61.90.20.30,Thailand,13.75399971,100.5014038
Bangkok,61.90.20.30,Thailand,13.75399971,100.5014038
Bangkok,61.90.20.30,Thailand,13.75399971,100.5014038
Bangkok,61.90.20.30,Thailand,13.75399971,100.5014038
Bangkok,61.90.20.30,Thailand,13.75399971,100.5014038
Bangkok,61.90.20.30,Thailand,13.75399971,100.5014038
Bangkok,61.90.20.30,Thailand,13.75399971,100.5014038
Bangkok,61.90.20.30,Thailand,13.75399971,100.5014038
Bangkok,61.90.20.30,Thailand,13.75399971,100.5014038
Bangkok,61.90.20.30,Thailand,13.75399971,100.5014038
Bangkok,61.90.20.30,Thailand,13.75399971,100.5014038
Bangkok,61.90.20.30,Thailand,13.75399971,100.5014038
Bangkok,61.90.20.30,Thailand,13.75399971,100.5014038
Bangkok,61.90.20.30,Thailand,13.75399971,100.5014038
Bangkok,61.90.20.30,Thailand,13.75399971,100.5014038
Bangkok,61.90.20.30,Thailand,13.75399971,100.5014038
Bangkok,61.90.20.30,Thailand,13.75399971,100.5014038
Bangkok,61.90.20.30,Thailand,13.75399971,100.5014038
Bangkok,61.90.20.30,Thailand,13.75399971,100.5014038
Bangkok,61.90.20.30,Thailand,13.75399971,100.5014038
Bangkok,61.90.20.30,Thailand,13.75399971,100.5014038
Bangkok,61.90.20.30,Thailand,13.75399971,100.5014038
Bangkok,61.90.20.30,Thailand,13.75399971,100.5014038
Bangkok,61.90.20.30,Thailand,13.75399971,100.5014038
Bangkok,61.90.20.30,Thailand,13.75399971,100.5014038
Bangkok,61.90.20.30,Thailand,13.75399971,100.5014038
Bangkok,61.90.20.30,Thailand,13.75399971,100.5014038
Bangkok,61.90.20.30,Thailand,13.75399971,100.5014038
Bangkok,61.90.20.30,Thailand,13.75399971,100.5014038
Bangkok,61.90.20.30,Thailand,13.75399971,100.5014038
Bangkok,61.90.20.30,Thailand,13.75399971,100.5014038
Bangkok,61.90.20.30,Thailand,13.75399971,100.5014038
Bangkok,61.90.20.30,Thailand,13.75399971,100.5014038
Bangkok,61.90.20.30,Thailand,13.75399971,100.5014038
Bangkok,61.90.20.30,Thailand,13.75399971,100.5014038
Bangkok,61.90.20.30,Thailand,13.75399971,100.5014038
Bangkok,61.90.20.30,Thailand,13.75399971,100.5014038
Hyderabad,49.206.186.56,India,17.37529945,78.47440338
Hyderabad,49.206.186.56,India,17.37529945,78.47440338
Hyderabad,49.206.186.56,India,17.37529945,78.47440338
Hyderabad,49.206.186.56,India,17.37529945,78.47440338
Hyderabad,49.206.186.56,India,17.37529945,78.47440338
Hyderabad,49.206.186.56,India,17.37529945,78.47440338
Hyderabad,49.206.186.56,India,17.37529945,78.47440338
Hyderabad,49.206.186.56,India,17.37529945,78.47440338
Hyderabad,49.206.186.56,India,17.37529945,78.47440338
Hyderabad,49.206.186.56,India,17.37529945,78.47440338
Hyderabad,49.206.186.56,India,17.37529945,78.47440338
Hyderabad,49.206.186.56,India,17.37529945,78.47440338
Hyderabad,49.206.186.56,India,17.37529945,78.47440338
Hyderabad,49.206.186.56,India,17.37529945,78.47440338
Hyderabad,49.206.186.56,India,17.37529945,78.47440338
Hyderabad,49.206.186.56,India,17.37529945,78.47440338
Hyderabad,49.206.186.56,India,17.37529945,78.47440338
Hyderabad,49.206.186.56,India,17.37529945,78.47440338
Hyderabad,49.206.186.56,India,17.37529945,78.47440338
Hyderabad,49.206.186.56,India,17.37529945,78.47440338
Hyderabad,49.206.186.56,India,17.37529945,78.47440338
Hyderabad,49.206.186.56,India,17.37529945,78.47440338
Hyderabad,49.206.186.56,India,17.37529945,78.47440338
Hyderabad,49.206.186.56,India,17.37529945,78.47440338
Hyderabad,49.206.186.56,India,17.37529945,78.47440338
Hyderabad,49.206.186.56,India,17.37529945,78.47440338
Hyderabad,49.206.186.56,India,17.37529945,78.47440338
Hyderabad,49.206.186.56,India,17.37529945,78.47440338
Hyderabad,49.206.186.56,India,17.37529945,78.47440338
Hyderabad,49.206.186.56,India,17.37529945,78.47440338
Hyderabad,49.206.186.56,India,17.37529945,78.47440338
Hyderabad,49.206.186.56,India,17.37529945,78.47440338
Hyderabad,49.206.186.56,India,17.37529945,78.47440338
Hyderabad,49.206.186.56,India,17.37529945,78.47440338
Hyderabad,49.206.186.56,India,17.37529945,78.47440338
Hyderabad,49.206.186.56,India,17.37529945,78.47440338
Hyderabad,49.206.186.56,India,17.37529945,78.47440338
Hyderabad,49.206.186.56,India,17.37529945,78.47440338
Hyderabad,49.206.186.56,India,17.37529945,78.47440338
Hyderabad,49.206.186.56,India,17.37529945,78.47440338
Hyderabad,49.206.186.56,India,17.37529945,78.47440338
Hyderabad,49.206.186.56,India,17.37529945,78.47440338
Hyderabad,49.206.186.56,India,17.37529945,78.47440338
Hyderabad,49.206.186.56,India,17.37529945,78.47440338
Bangkok,61.90.20.30,Thailand,13.75399971,100.5014038
Hyderabad,49.206.186.56,India,17.37529945,78.47440338
Hyderabad,49.206.186.56,India,17.37529945,78.47440338
Hyderabad,49.206.186.56,India,17.37529945,78.47440338
Hyderabad,49.206.186.56,India,17.37529945,78.47440338
Hyderabad,49.206.186.56,India,17.37529945,78.47440338
Hyderabad,49.206.186.56,India,17.37529945,78.47440338
Hyderabad,49.206.186.56,India,17.37529945,78.47440338
Hyderabad,49.206.186.56,India,17.37529945,78.47440338
Hyderabad,49.206.186.56,India,17.37529945,78.47440338
Hyderabad,49.206.186.56,India,17.37529945,78.47440338
Hyderabad,49.206.186.56,India,17.37529945,78.47440338
Bangkok,61.90.20.30,Thailand,13.75399971,100.5014038
Bangkok,61.90.20.30,Thailand,13.75399971,100.5014038
Bangkok,61.90.20.30,Thailand,13.75399971,100.5014038
Bangkok,61.90.20.30,Thailand,13.75399971,100.5014038
Bangkok,61.90.20.30,Thailand,13.75399971,100.5014038
Bangkok,61.90.20.30,Thailand,13.75399971,100.5014038
Bangkok,61.90.20.30,Thailand,13.75399971,100.5014038
Bangkok,61.90.20.30,Thailand,13.75399971,100.5014038
Bangkok,61.90.20.30,Thailand,13.75399971,100.5014038
Bangkok,61.90.20.30,Thailand,13.75399971,100.5014038
Bangkok,61.90.20.30,Thailand,13.75399971,100.5014038
Bangkok,61.90.20.30,Thailand,13.75399971,100.5014038
Bangkok,61.90.20.30,Thailand,13.75399971,100.5014038
Bangkok,61.90.20.30,Thailand,13.75399971,100.5014038
Bangkok,61.90.20.30,Thailand,13.75399971,100.5014038
Bangkok,61.90.20.30,Thailand,13.75399971,100.5014038
Bangkok,61.90.20.30,Thailand,13.75399971,100.5014038
Bangkok,61.90.20.30,Thailand,13.75399971,100.5014038
Bangkok,61.90.20.30,Thailand,13.75399971,100.5014038
Bangkok,61.90.20.30,Thailand,13.75399971,100.5014038
Bangkok,61.90.20.30,Thailand,13.75399971,100.5014038
Bangkok,61.90.20.30,Thailand,13.75399971,100.5014038
Bangkok,61.90.20.30,Thailand,13.75399971,100.5014038
Bangkok,61.90.20.30,Thailand,13.75399971,100.5014038
Bangkok,61.90.20.30,Thailand,13.75399971,100.5014038
Bangkok,61.90.20.30,Thailand,13.75399971,100.5014038
Bangkok,61.90.20.30,Thailand,13.75399971,100.5014038
Bangkok,61.90.20.30,Thailand,13.75399971,100.5014038
Bangkok,61.90.20.30,Thailand,13.75399971,100.5014038
Bangkok,61.90.20.30,Thailand,13.75399971,100.5014038
Bangkok,61.90.20.30,Thailand,13.75399971,100.5014038
Bangkok,61.90.20.30,Thailand,13.75399971,100.5014038
Bangkok,61.90.20.30,Thailand,13.75399971,100.5014038
Hyderabad,49.206.186.56,India,17.37529945,78.47440338
Hyderabad,49.206.186.56,India,17.37529945,78.47440338
Hyderabad,49.206.186.56,India,17.37529945,78.47440338
Hyderabad,49.206.186.56,India,17.37529945,78.47440338
Hyderabad,49.206.186.56,India,17.37529945,78.47440338
Hyderabad,49.206.186.56,India,17.37529945,78.47440338
Hyderabad,49.206.186.56,India,17.37529945,78.47440338
Hyderabad,49.206.186.56,India,17.37529945,78.47440338
Hyderabad,49.206.186.56,India,17.37529945,78.47440338
Hyderabad,49.206.186.56,India,17.37529945,78.47440338
Hyderabad,49.206.186.56,India,17.37529945,78.47440338
Hyderabad,49.206.186.56,India,17.37529945,78.47440338
Hyderabad,49.206.186.56,India,17.37529945,78.47440338
Hyderabad,49.206.186.56,India,17.37529945,78.47440338
Hyderabad,49.206.186.56,India,17.37529945,78.47440338
Hyderabad,49.206.186.56,India,17.37529945,78.47440338
Hyderabad,49.206.186.56,India,17.37529945,78.47440338
Hyderabad,49.206.186.56,India,17.37529945,78.47440338
Hyderabad,49.206.186.56,India,17.37529945,78.47440338
Hyderabad,49.206.186.56,India,17.37529945,78.47440338
Hyderabad,49.206.186.56,India,17.37529945,78.47440338
Hyderabad,49.206.186.56,India,17.37529945,78.47440338
Hyderabad,49.206.186.56,India,17.37529945,78.47440338
Hyderabad,49.206.186.56,India,17.37529945,78.47440338
Hyderabad,49.206.186.56,India,17.37529945,78.47440338
Hyderabad,49.206.186.56,India,17.37529945,78.47440338
Hyderabad,49.206.186.56,India,17.37529945,78.47440338
Hyderabad,49.206.186.56,India,17.37529945,78.47440338
Hyderabad,49.206.186.56,India,17.37529945,78.47440338
Hyderabad,49.206.186.56,India,17.37529945,78.47440338
Hyderabad,49.206.186.56,India,17.37529945,78.47440338
Hyderabad,49.206.186.56,India,17.37529945,78.47440338
Hyderabad,49.206.186.56,India,17.37529945,78.47440338
Hyderabad,49.206.186.56,India,17.37529945,78.47440338
Hyderabad,49.206.186.56,India,17.37529945,78.47440338
Hyderabad,49.206.186.56,India,17.37529945,78.47440338
Hyderabad,49.206.186.56,India,17.37529945,78.47440338
Hyderabad,49.206.186.56,India,17.37529945,78.47440338
Hyderabad,49.206.186.56,India,17.37529945,78.47440338
Hyderabad,49.206.186.56,India,17.37529945,78.47440338
Hyderabad,49.206.186.56,India,17.37529945,78.47440338
Hyderabad,49.206.186.56,India,17.37529945,78.47440338
Hyderabad,49.206.186.56,India,17.37529945,78.47440338
Hyderabad,49.206.186.56,India,17.37529945,78.47440338
Hyderabad,49.206.186.56,India,17.37529945,78.47440338
Hyderabad,49.206.186.56,India,17.37529945,78.47440338
Hyderabad,49.206.186.56,India,17.37529945,78.47440338
Hyderabad,49.206.186.56,India,17.37529945,78.47440338
Hyderabad,49.206.186.56,India,17.37529945,78.47440338
Hyderabad,49.206.186.56,India,17.37529945,78.47440338
Hyderabad,49.206.186.56,India,17.37529945,78.47440338
Hyderabad,49.206.186.56,India,17.37529945,78.47440338
Hyderabad,49.206.186.56,India,17.37529945,78.47440338
Hyderabad,49.206.186.56,India,17.37529945,78.47440338
Hyderabad,49.206.186.56,India,17.37529945,78.47440338
Hyderabad,49.206.186.56,India,17.37529945,78.47440338
Hyderabad,49.206.186.56,India,17.37529945,78.47440338
Hyderabad,49.206.186.56,India,17.37529945,78.47440338
Hyderabad,49.206.186.56,India,17.37529945,78.47440338
Hyderabad,49.206.186.56,India,17.37529945,78.47440338
Hyderabad,49.206.186.56,India,17.37529945,78.47440338
Hyderabad,49.206.186.56,India,17.37529945,78.47440338
Hyderabad,49.206.186.56,India,17.37529945,78.47440338
Hyderabad,49.206.186.56,India,17.37529945,78.47440338
Hyderabad,49.206.186.56,India,17.37529945,78.47440338
Hyderabad,49.206.186.56,India,17.37529945,78.47440338
Bangkok,61.90.20.30,Thailand,13.75399971,100.5014038
Hyderabad,49.206.186.56,India,17.37529945,78.47440338
Bangkok,61.90.20.30,Thailand,13.75399971,100.5014038
Hyderabad,49.206.186.56,India,17.37529945,78.47440338
Bangkok,61.90.20.30,Thailand,13.75399971,100.5014038
Hyderabad,49.206.186.56,India,17.37529945,78.47440338
Bangkok,61.90.20.30,Thailand,13.75399971,100.5014038
Hyderabad,49.206.186.56,India,17.37529945,78.47440338
Hyderabad,49.206.186.56,India,17.37529945,78.47440338
Hyderabad,49.206.186.56,India,17.37529945,78.47440338
Bangkok,61.90.20.30,Thailand,13.75399971,100.5014038
Hyderabad,49.206.186.56,India,17.37529945,78.47440338
Hyderabad,49.206.186.56,India,17.37529945,78.47440338
Hyderabad,49.206.186.56,India,17.37529945,78.47440338
Bangkok,61.90.20.30,Thailand,13.75399971,100.5014038
Hyderabad,49.206.186.56,India,17.37529945,78.47440338
Hyderabad,49.206.186.56,India,17.37529945,78.47440338
Bangkok,61.90.20.30,Thailand,13.75399971,100.5014038
Bangkok,61.90.20.30,Thailand,13.75399971,100.5014038
Bangkok,61.90.20.30,Thailand,13.75399971,100.5014038
Bangkok,61.90.20.30,Thailand,13.75399971,100.5014038
Bangkok,61.90.20.30,Thailand,13.75399971,100.5014038
Bangkok,61.90.20.30,Thailand,13.75399971,100.5014038
Bangkok,61.90.20.30,Thailand,13.75399971,100.5014038
Bangkok,61.90.20.30,Thailand,13.75399971,100.5014038
Bangkok,61.90.20.30,Thailand,13.75399971,100.5014038
Bangkok,61.90.20.30,Thailand,13.75399971,100.5014038
Bangkok,61.90.20.30,Thailand,13.75399971,100.5014038
Bangkok,61.90.20.30,Thailand,13.75399971,100.5014038
Bangkok,61.90.20.30,Thailand,13.75399971,100.5014038
Bangkok,61.90.20.30,Thailand,13.75399971,100.5014038
Bangkok,61.90.20.30,Thailand,13.75399971,100.5014038
Bangkok,61.90.20.30,Thailand,13.75399971,100.5014038
Hyderabad,49.206.186.56,India,17.37529945,78.47440338
Hyderabad,49.206.186.56,India,17.37529945,78.47440338
Hyderabad,49.206.186.56,India,17.37529945,78.47440338
Hyderabad,49.206.186.56,India,17.37529945,78.47440338
Hyderabad,49.206.186.56,India,17.37529945,78.47440338
Hyderabad,49.206.186.56,India,17.37529945,78.47440338
Hyderabad,49.206.186.56,India,17.37529945,78.47440338
Hyderabad,49.206.186.56,India,17.37529945,78.47440338
Hyderabad,49.206.186.56,India,17.37529945,78.47440338
Hyderabad,49.206.186.56,India,17.37529945,78.47440338
Hyderabad,49.206.186.56,India,17.37529945,78.47440338
Hyderabad,49.206.186.56,India,17.37529945,78.47440338
Hyderabad,49.206.186.56,India,17.37529945,78.47440338
Hyderabad,49.206.186.56,India,17.37529945,78.47440338
Hyderabad,49.206.186.56,India,17.37529945,78.47440338
Hyderabad,49.206.186.56,India,17.37529945,78.47440338
Hyderabad,49.206.186.56,India,17.37529945,78.47440338
Hyderabad,49.206.186.56,India,17.37529945,78.47440338
Hyderabad,49.206.186.56,India,17.37529945,78.47440338
Hyderabad,49.206.186.56,India,17.37529945,78.47440338
Hyderabad,49.206.186.56,India,17.37529945,78.47440338
Hyderabad,49.206.186.56,India,17.37529945,78.47440338
Hyderabad,49.206.186.56,India,17.37529945,78.47440338
Hyderabad,49.206.186.56,India,17.37529945,78.47440338
Hyderabad,49.206.186.56,India,17.37529945,78.47440338
Hyderabad,49.206.186.56,India,17.37529945,78.47440338
Hyderabad,49.206.186.56,India,17.37529945,78.47440338
Hyderabad,49.206.186.56,India,17.37529945,78.47440338
Hyderabad,49.206.186.56,India,17.37529945,78.47440338
Hyderabad,49.206.186.56,India,17.37529945,78.47440338
Hyderabad,49.206.186.56,India,17.37529945,78.47440338
Hyderabad,49.206.186.56,India,17.37529945,78.47440338
Hyderabad,49.206.186.56,India,17.37529945,78.47440338
Hyderabad,49.206.186.56,India,17.37529945,78.47440338
Hyderabad,49.206.186.56,India,17.37529945,78.47440338
Hyderabad,49.206.186.56,India,17.37529945,78.47440338
Hyderabad,49.206.186.56,India,17.37529945,78.47440338
Hyderabad,49.206.186.56,India,17.37529945,78.47440338
Hyderabad,49.206.186.56,India,17.37529945,78.47440338
Hyderabad,49.206.186.56,India,17.37529945,78.47440338
Hyderabad,49.206.186.56,India,17.37529945,78.47440338
Hyderabad,49.206.186.56,India,17.37529945,78.47440338
Hyderabad,49.206.186.56,India,17.37529945,78.47440338
Hyderabad,49.206.186.56,India,17.37529945,78.47440338
Hyderabad,49.206.186.56,India,17.37529945,78.47440338
Hyderabad,49.206.186.56,India,17.37529945,78.47440338
Hyderabad,49.206.186.56,India,17.37529945,78.47440338
Hyderabad,49.206.186.56,India,17.37529945,78.47440338
Hyderabad,49.206.186.56,India,17.37529945,78.47440338
Hyderabad,49.206.186.56,India,17.37529945,78.47440338
Hyderabad,49.206.186.56,India,17.37529945,78.47440338
Hyderabad,49.206.186.56,India,17.37529945,78.47440338
Hyderabad,49.206.186.56,India,17.37529945,78.47440338
Hyderabad,49.206.186.56,India,17.37529945,78.47440338
Hyderabad,49.206.186.56,India,17.37529945,78.47440338
Hyderabad,49.206.186.56,India,17.37529945,78.47440338
Hyderabad,49.206.186.56,India,17.37529945,78.47440338
Hyderabad,49.206.186.56,India,17.37529945,78.47440338
Hyderabad,49.206.186.56,India,17.37529945,78.47440338
Hyderabad,49.206.186.56,India,17.37529945,78.47440338
Hyderabad,49.206.186.56,India,17.37529945,78.47440338
Hyderabad,49.206.186.56,India,17.37529945,78.47440338
Hyderabad,49.206.186.56,India,17.37529945,78.47440338
Hyderabad,49.206.186.56,India,17.37529945,78.47440338
Hyderabad,49.206.186.56,India,17.37529945,78.47440338
Hyderabad,49.206.186.56,India,17.37529945,78.47440338
Hyderabad,49.206.186.56,India,17.37529945,78.47440338
Hyderabad,49.206.186.56,India,17.37529945,78.47440338
Hyderabad,49.206.186.56,India,17.37529945,78.47440338
Hyderabad,49.206.186.56,India,17.37529945,78.47440338
Hyderabad,49.206.186.56,India,17.37529945,78.47440338
Hyderabad,49.206.186.56,India,17.37529945,78.47440338
Hyderabad,49.206.186.56,India,17.37529945,78.47440338
Hyderabad,49.206.186.56,India,17.37529945,78.47440338
Hyderabad,49.206.186.56,India,17.37529945,78.47440338
Hyderabad,49.206.186.56,India,17.37529945,78.47440338
Hyderabad,49.206.186.56,India,17.37529945,78.47440338
Hyderabad,49.206.186.56,India,17.37529945,78.47440338
Hyderabad,49.206.186.56,India,17.37529945,78.47440338
Hyderabad,49.206.186.56,India,17.37529945,78.47440338
Hyderabad,49.206.186.56,India,17.37529945,78.47440338
Hyderabad,49.206.186.56,India,17.37529945,78.47440338
Hyderabad,49.206.186.56,India,17.37529945,78.47440338
Hyderabad,49.206.186.56,India,17.37529945,78.47440338
Hyderabad,49.206.186.56,India,17.37529945,78.47440338
Hyderabad,49.206.186.56,India,17.37529945,78.47440338
Hyderabad,49.206.186.56,India,17.37529945,78.47440338
Hyderabad,49.206.186.56,India,17.37529945,78.47440338
Bangkok,61.90.20.30,Thailand,13.75399971,100.5014038
Hyderabad,49.206.186.56,India,17.37529945,78.47440338
Hyderabad,49.206.186.56,India,17.37529945,78.47440338
Hyderabad,49.206.186.56,India,17.37529945,78.47440338
Hyderabad,49.206.186.56,India,17.37529945,78.47440338
Hyderabad,49.206.186.56,India,17.37529945,78.47440338
Hyderabad,49.206.186.56,India,17.37529945,78.47440338
Hyderabad,49.206.186.56,India,17.37529945,78.47440338
Hyderabad,49.206.186.56,India,17.37529945,78.47440338
Hyderabad,49.206.186.56,India,17.37529945,78.47440338
Hyderabad,49.206.186.56,India,17.37529945,78.47440338
Hyderabad,49.206.186.56,India,17.37529945,78.47440338
Hyderabad,49.206.186.56,India,17.37529945,78.47440338
Hyderabad,49.206.186.56,India,17.37529945,78.47440338
Bangkok,61.90.20.30,Thailand,13.75399971,100.5014038
Hyderabad,49.206.186.56,India,17.37529945,78.47440338
Hyderabad,49.206.186.56,India,17.37529945,78.47440338
Hyderabad,49.206.186.56,India,17.37529945,78.47440338
Hyderabad,49.206.186.56,India,17.37529945,78.47440338
Hyderabad,49.206.186.56,India,17.37529945,78.47440338
Hyderabad,49.206.186.56,India,17.37529945,78.47440338
Bangkok,61.90.20.30,Thailand,13.75399971,100.5014038
Bangkok,61.90.20.30,Thailand,13.75399971,100.5014038
Bangkok,61.90.20.30,Thailand,13.75399971,100.5014038
Bangkok,61.90.20.30,Thailand,13.75399971,100.5014038
Bangkok,61.90.20.30,Thailand,13.75399971,100.5014038
Bangkok,61.90.20.30,Thailand,13.75399971,100.5014038
Bangkok,61.90.20.30,Thailand,13.75399971,100.5014038
Bangkok,61.90.20.30,Thailand,13.75399971,100.5014038
Bangkok,61.90.20.30,Thailand,13.75399971,100.5014038
Bangkok,61.90.20.30,Thailand,13.75399971,100.5014038
Bangkok,61.90.20.30,Thailand,13.75399971,100.5014038
Bangkok,61.90.20.30,Thailand,13.75399971,100.5014038
Bangkok,61.90.20.30,Thailand,13.75399971,100.5014038
Bangkok,61.90.20.30,Thailand,13.75399971,100.5014038
Hyderabad,49.206.186.56,India,17.37529945,78.47440338
Bangkok,61.90.20.30,Thailand,13.75399971,100.5014038
Mountain View,66.249.76.207,United States,37.38600159,-122.0838013
Hyderabad,49.206.186.56,India,17.37529945,78.47440338
Mountain View,66.249.76.223,United States,37.38600159,-122.0838013
Mountain View,66.249.76.234,United States,37.38600159,-122.0838013
Bangkok,61.90.20.30,Thailand,13.75399971,100.5014038
Bangkok,61.90.20.30,Thailand,13.75399971,100.5014038
Bangkok,61.90.20.30,Thailand,13.75399971,100.5014038
Hyderabad,49.206.186.56,India,17.37529945,78.47440338
Hyderabad,49.206.186.56,India,17.37529945,78.47440338
Hyderabad,49.206.186.56,India,17.37529945,78.47440338
Hyderabad,49.206.186.56,India,17.37529945,78.47440338
Hyderabad,49.206.186.56,India,17.37529945,78.47440338
Hyderabad,49.206.186.56,India,17.37529945,78.47440338
Hyderabad,49.206.186.56,India,17.37529945,78.47440338
Hyderabad,49.206.186.56,India,17.37529945,78.47440338
Bangkok,61.90.20.30,Thailand,13.75399971,100.5014038
Hyderabad,49.206.186.56,India,17.37529945,78.47440338
Hyderabad,49.206.186.56,India,17.37529945,78.47440338
Hyderabad,49.206.186.56,India,17.37529945,78.47440338
Hyderabad,49.206.186.56,India,17.37529945,78.47440338
Hyderabad,49.206.186.56,India,17.37529945,78.47440338
Hyderabad,49.206.186.56,India,17.37529945,78.47440338
Hyderabad,49.206.186.56,India,17.37529945,78.47440338
Hyderabad,49.206.186.56,India,17.37529945,78.47440338
Hyderabad,49.206.186.56,India,17.37529945,78.47440338
Hyderabad,49.206.186.56,India,17.37529945,78.47440338
Hyderabad,49.206.186.56,India,17.37529945,78.47440338
Hyderabad,49.206.186.56,India,17.37529945,78.47440338
Hyderabad,49.206.186.56,India,17.37529945,78.47440338
Hyderabad,49.206.186.56,India,17.37529945,78.47440338
Hyderabad,49.206.186.56,India,17.37529945,78.47440338
Hyderabad,49.206.186.56,India,17.37529945,78.47440338
Hyderabad,49.206.186.56,India,17.37529945,78.47440338
Hyderabad,49.206.186.56,India,17.37529945,78.47440338
Hyderabad,49.206.186.56,India,17.37529945,78.47440338
Hyderabad,49.206.186.56,India,17.37529945,78.47440338
Hyderabad,49.206.186.56,India,17.37529945,78.47440338
Hyderabad,49.206.186.56,India,17.37529945,78.47440338
Hyderabad,49.206.186.56,India,17.37529945,78.47440338
Hyderabad,49.206.186.56,India,17.37529945,78.47440338
Hyderabad,49.206.186.56,India,17.37529945,78.47440338
Hyderabad,49.206.186.56,India,17.37529945,78.47440338
Bangkok,61.90.20.30,Thailand,13.75399971,100.5014038
Hyderabad,49.206.186.56,India,17.37529945,78.47440338
Hyderabad,49.206.186.56,India,17.37529945,78.47440338
Hyderabad,49.206.186.56,India,17.37529945,78.47440338
Hyderabad,49.206.186.56,India,17.37529945,78.47440338
Bangkok,61.90.20.30,Thailand,13.75399971,100.5014038
Bangkok,61.90.20.30,Thailand,13.75399971,100.5014038
Bangkok,61.90.20.30,Thailand,13.75399971,100.5014038
Bangkok,61.90.20.30,Thailand,13.75399971,100.5014038
Bangkok,61.90.20.30,Thailand,13.75399971,100.5014038
Bangkok,61.90.20.30,Thailand,13.75399971,100.5014038
Bangkok,61.90.20.30,Thailand,13.75399971,100.5014038
Hyderabad,49.206.186.56,India,17.37529945,78.47440338
Bangkok,61.90.20.30,Thailand,13.75399971,100.5014038
Bangkok,61.90.20.30,Thailand,13.75399971,100.5014038
Bangkok,61.90.20.30,Thailand,13.75399971,100.5014038
Bangkok,61.90.20.30,Thailand,13.75399971,100.5014038
Bangkok,61.90.20.30,Thailand,13.75399971,100.5014038
Bangkok,61.90.20.30,Thailand,13.75399971,100.5014038
Bangkok,61.90.20.30,Thailand,13.75399971,100.5014038
Bangkok,61.90.20.30,Thailand,13.75399971,100.5014038
Bangkok,61.90.20.30,Thailand,13.75399971,100.5014038
Bangkok,61.90.20.30,Thailand,13.75399971,100.5014038
Bangkok,61.90.20.30,Thailand,13.75399971,100.5014038
Hyderabad,49.206.186.56,India,17.37529945,78.47440338
Bangkok,61.90.20.30,Thailand,13.75399971,100.5014038
Bangkok,61.90.20.30,Thailand,13.75399971,100.5014038
Hyderabad,49.206.186.56,India,17.37529945,78.47440338
Bangkok,61.90.20.30,Thailand,13.75399971,100.5014038
Bangkok,61.90.20.30,Thailand,13.75399971,100.5014038
Hyderabad,49.206.186.56,India,17.37529945,78.47440338
Hyderabad,49.206.186.56,India,17.37529945,78.47440338
Hyderabad,49.206.186.56,India,17.37529945,78.47440338
Bangkok,61.90.20.30,Thailand,13.75399971,100.5014038
Bangkok,61.90.20.30,Thailand,13.75399971,100.5014038
Bangkok,61.90.20.30,Thailand,13.75399971,100.5014038
Bangkok,61.90.20.30,Thailand,13.75399971,100.5014038
Bangkok,61.90.20.30,Thailand,13.75399971,100.5014038
Bangkok,61.90.20.30,Thailand,13.75399971,100.5014038
Bangkok,61.90.20.30,Thailand,13.75399971,100.5014038
Bangkok,61.90.20.30,Thailand,13.75399971,100.5014038
Bangkok,61.90.20.30,Thailand,13.75399971,100.5014038
Hyderabad,49.206.186.56,India,17.37529945,78.47440338
Bangkok,61.90.20.30,Thailand,13.75399971,100.5014038
Bangkok,61.90.20.30,Thailand,13.75399971,100.5014038
Bangkok,61.90.20.30,Thailand,13.75399971,100.5014038
Bangkok,61.90.20.30,Thailand,13.75399971,100.5014038
Bangkok,61.90.20.30,Thailand,13.75399971,100.5014038
Bangkok,61.90.20.30,Thailand,13.75399971,100.5014038
Hyderabad,49.206.186.56,India,17.37529945,78.47440338
Hyderabad,49.206.186.56,India,17.37529945,78.47440338
Hyderabad,49.206.186.56,India,17.37529945,78.47440338
Hyderabad,49.206.186.56,India,17.37529945,78.47440338
Bangkok,61.90.20.30,Thailand,13.75399971,100.5014038
Hyderabad,49.206.186.56,India,17.37529945,78.47440338
Hyderabad,49.206.186.56,India,17.37529945,78.47440338
Hyderabad,49.206.186.56,India,17.37529945,78.47440338
Hyderabad,49.206.186.56,India,17.37529945,78.47440338
Hyderabad,49.206.186.56,India,17.37529945,78.47440338
Hyderabad,49.206.186.56,India,17.37529945,78.47440338
Hyderabad,49.206.186.56,India,17.37529945,78.47440338
Hyderabad,49.206.186.56,India,17.37529945,78.47440338
Hyderabad,49.206.186.56,India,17.37529945,78.47440338
Hyderabad,49.206.186.56,India,17.37529945,78.47440338
Hyderabad,49.206.186.56,India,17.37529945,78.47440338
Hyderabad,49.206.186.56,India,17.37529945,78.47440338
Hyderabad,49.206.186.56,India,17.37529945,78.47440338
Hyderabad,49.206.186.56,India,17.37529945,78.47440338
Hyderabad,49.206.186.56,India,17.37529945,78.47440338
Hyderabad,49.206.186.56,India,17.37529945,78.47440338
Hyderabad,49.206.186.56,India,17.37529945,78.47440338
Hyderabad,49.206.186.56,India,17.37529945,78.47440338
Hyderabad,49.206.186.56,India,17.37529945,78.47440338
Hyderabad,49.206.186.56,India,17.37529945,78.47440338
Hyderabad,49.206.186.56,India,17.37529945,78.47440338
Hyderabad,49.206.186.56,India,17.37529945,78.47440338
Hyderabad,49.206.186.56,India,17.37529945,78.47440338
Hyderabad,49.206.186.56,India,17.37529945,78.47440338
Hyderabad,49.206.186.56,India,17.37529945,78.47440338
Bangkok,61.90.20.30,Thailand,13.75399971,100.5014038
Hyderabad,49.206.186.56,India,17.37529945,78.47440338
Bangkok,61.90.20.30,Thailand,13.75399971,100.5014038
Bangkok,61.90.20.30,Thailand,13.75399971,100.5014038
Hyderabad,49.206.186.56,India,17.37529945,78.47440338
Hyderabad,49.206.186.56,India,17.37529945,78.47440338
Hyderabad,49.206.186.56,India,17.37529945,78.47440338
Hyderabad,49.206.186.56,India,17.37529945,78.47440338
Hyderabad,49.206.186.56,India,17.37529945,78.47440338
Bangkok,61.90.20.30,Thailand,13.75399971,100.5014038
Hyderabad,49.206.186.56,India,17.37529945,78.47440338
Hyderabad,49.206.186.56,India,17.37529945,78.47440338
Hyderabad,49.206.186.56,India,17.37529945,78.47440338
Hyderabad,49.206.186.56,India,17.37529945,78.47440338
Bangkok,61.90.20.30,Thailand,13.75399971,100.5014038
Bangkok,61.90.20.30,Thailand,13.75399971,100.5014038
Bangkok,61.90.20.30,Thailand,13.75399971,100.5014038
Mountain View,66.249.76.223,United States,37.38600159,-122.0838013
Mountain View,66.249.76.207,United States,37.38600159,-122.0838013
Mountain View,66.249.76.213,United States,37.38600159,-122.0838013
Hyderabad,49.206.186.56,India,17.37529945,78.47440338
Bangkok,61.90.20.30,Thailand,13.75399971,100.5014038
Hyderabad,49.206.186.56,India,17.37529945,78.47440338
Hyderabad,49.206.186.56,India,17.37529945,78.47440338
Bangkok,61.90.20.30,Thailand,13.75399971,100.5014038
Bangkok,61.90.20.30,Thailand,13.75399971,100.5014038
Bangkok,61.90.20.30,Thailand,13.75399971,100.5014038
Bangkok,61.90.20.30,Thailand,13.75399971,100.5014038
Bangkok,61.90.20.30,Thailand,13.75399971,100.5014038
Bangkok,61.90.20.30,Thailand,13.75399971,100.5014038
Bangkok,61.90.20.30,Thailand,13.75399971,100.5014038
Bangkok,61.90.20.30,Thailand,13.75399971,100.5014038
Hyderabad,49.206.186.56,India,17.37529945,78.47440338
Bangkok,61.90.20.30,Thailand,13.75399971,100.5014038
Bangkok,61.90.20.30,Thailand,13.75399971,100.5014038
Bangkok,61.90.20.30,Thailand,13.75399971,100.5014038
Bangkok,61.90.20.30,Thailand,13.75399971,100.5014038
Bangkok,61.90.20.30,Thailand,13.75399971,100.5014038
Hyderabad,49.206.186.56,India,17.37529945,78.47440338
Bangkok,61.90.20.30,Thailand,13.75399971,100.5014038
Bangkok,61.90.20.30,Thailand,13.75399971,100.5014038
Hyderabad,49.206.186.56,India,17.37529945,78.47440338
Hyderabad,49.206.186.56,India,17.37529945,78.47440338
Bangkok,61.90.20.30,Thailand,13.75399971,100.5014038
Bangkok,61.90.20.30,Thailand,13.75399971,100.5014038
Bangkok,61.90.20.30,Thailand,13.75399971,100.5014038
Bangkok,61.90.20.30,Thailand,13.75399971,100.5014038
Bangkok,61.90.20.30,Thailand,13.75399971,100.5014038
Hyderabad,49.206.186.56,India,17.37529945,78.47440338
Bangkok,61.90.20.30,Thailand,13.75399971,100.5014038
Hyderabad,49.206.186.56,India,17.37529945,78.47440338
Bangkok,61.90.20.30,Thailand,13.75399971,100.5014038
Hyderabad,49.206.186.56,India,17.37529945,78.47440338
Bangkok,61.90.20.30,Thailand,13.75399971,100.5014038
Bangkok,61.90.20.30,Thailand,13.75399971,100.5014038
Bangkok,61.90.20.30,Thailand,13.75399971,100.5014038
Hyderabad,49.206.186.56,India,17.37529945,78.47440338
Bangkok,61.90.20.30,Thailand,13.75399971,100.5014038
Hyderabad,49.206.186.56,India,17.37529945,78.47440338
Hyderabad,49.206.186.56,India,17.37529945,78.47440338
Hyderabad,49.206.186.56,India,17.37529945,78.47440338
Hyderabad,49.206.186.56,India,17.37529945,78.47440338
Hyderabad,49.206.186.56,India,17.37529945,78.47440338
Hyderabad,49.206.186.56,India,17.37529945,78.47440338
Hyderabad,49.206.186.56,India,17.37529945,78.47440338
Hyderabad,49.206.186.56,India,17.37529945,78.47440338
Hyderabad,49.206.186.56,India,17.37529945,78.47440338
Hyderabad,49.206.186.56,India,17.37529945,78.47440338
Hyderabad,49.206.186.56,India,17.37529945,78.47440338
Hyderabad,49.206.186.56,India,17.37529945,78.47440338
Bangkok,61.90.20.30,Thailand,13.75399971,100.5014038
Hyderabad,49.206.186.56,India,17.37529945,78.47440338
Hyderabad,49.206.186.56,India,17.37529945,78.47440338
Hyderabad,49.206.186.56,India,17.37529945,78.47440338
Hyderabad,49.206.186.56,India,17.37529945,78.47440338
Hyderabad,49.206.186.56,India,17.37529945,78.47440338
Bangkok,61.90.20.30,Thailand,13.75399971,100.5014038
Hyderabad,49.206.186.56,India,17.37529945,78.47440338
Bangkok,61.90.20.30,Thailand,13.75399971,100.5014038
Bangkok,61.90.20.30,Thailand,13.75399971,100.5014038
Bangkok,61.90.20.30,Thailand,13.75399971,100.5014038
Hyderabad,49.206.186.56,India,17.37529945,78.47440338
Bangkok,61.90.20.30,Thailand,13.75399971,100.5014038
Bangkok,61.90.20.30,Thailand,13.75399971,100.5014038
Bangkok,61.90.20.30,Thailand,13.75399971,100.5014038
Bangkok,61.90.20.30,Thailand,13.75399971,100.5014038
Bangkok,61.90.20.30,Thailand,13.75399971,100.5014038
Bangkok,61.90.20.30,Thailand,13.75399971,100.5014038
Bangkok,61.90.20.30,Thailand,13.75399971,100.5014038
Bangkok,61.90.20.30,Thailand,13.75399971,100.5014038
Bangkok,61.90.20.30,Thailand,13.75399971,100.5014038
Bangkok,61.90.20.30,Thailand,13.75399971,100.5014038
Bangkok,61.90.20.30,Thailand,13.75399971,100.5014038
Bangkok,61.90.20.30,Thailand,13.75399971,100.5014038
Bangkok,61.90.20.30,Thailand,13.75399971,100.5014038
Bangkok,61.90.20.30,Thailand,13.75399971,100.5014038
Bangkok,61.90.20.30,Thailand,13.75399971,100.5014038
Bangkok,61.90.20.30,Thailand,13.75399971,100.5014038
Bangkok,61.90.20.30,Thailand,13.75399971,100.5014038
Bangkok,61.90.20.30,Thailand,13.75399971,100.5014038
Bangkok,61.90.20.30,Thailand,13.75399971,100.5014038
Bangkok,61.90.20.30,Thailand,13.75399971,100.5014038
Bangkok,61.90.20.30,Thailand,13.75399971,100.5014038
Bangkok,61.90.20.30,Thailand,13.75399971,100.5014038
Charlotte,143.165.48.50,United States,35.22710037,-80.8431015
Singapore,128.199.234.236,Singapore,1.293099999,103.8557968
Singapore,128.199.234.236,Singapore,1.293099999,103.8557968
Singapore,128.199.234.236,Singapore,1.293099999,103.8557968
Singapore,128.199.234.236,Singapore,1.293099999,103.8557968
Singapore,128.199.234.236,Singapore,1.293099999,103.8557968
Singapore,128.199.234.236,Singapore,1.293099999,103.8557968
Singapore,128.199.234.236,Singapore,1.293099999,103.8557968
Singapore,128.199.234.236,Singapore,1.293099999,103.8557968
Singapore,128.199.234.236,Singapore,1.293099999,103.8557968
Mountain View,66.249.76.219,United States,37.38600159,-122.0838013
Mountain View,66.249.76.228,United States,37.38600159,-122.0838013
Mountain View,66.249.76.208,United States,37.38600159,-122.0838013
,46.27.28.87,Spain,40,-4
,46.27.28.87,Spain,40,-4
,46.27.28.87,Spain,40,-4
,46.27.28.87,Spain,40,-4
,46.27.28.87,Spain,40,-4
,46.27.28.87,Spain,40,-4
,46.27.28.87,Spain,40,-4
,46.27.28.87,Spain,40,-4
,46.27.28.87,Spain,40,-4
,46.27.28.87,Spain,40,-4
,46.27.28.87,Spain,40,-4
,46.27.28.87,Spain,40,-4
,46.27.28.87,Spain,40,-4
,46.27.28.87,Spain,40,-4
,46.27.28.87,Spain,40,-4
,46.27.28.87,Spain,40,-4
,46.27.28.87,Spain,40,-4
,46.27.28.87,Spain,40,-4
,46.27.28.87,Spain,40,-4
,46.27.28.87,Spain,40,-4
,46.27.28.87,Spain,40,-4
,46.27.28.87,Spain,40,-4
,46.27.28.87,Spain,40,-4
,46.27.28.87,Spain,40,-4
,46.27.28.87,Spain,40,-4
,46.27.28.87,Spain,40,-4
,46.27.28.87,Spain,40,-4
,46.27.28.87,Spain,40,-4
,46.27.28.87,Spain,40,-4
,46.27.28.87,Spain,40,-4
,46.27.28.87,Spain,40,-4
,46.27.28.87,Spain,40,-4
,46.27.28.87,Spain,40,-4
,46.27.28.87,Spain,40,-4
,46.27.28.87,Spain,40,-4
,46.27.28.87,Spain,40,-4
,46.27.28.87,Spain,40,-4
,46.27.28.87,Spain,40,-4
,46.27.28.87,Spain,40,-4
,46.27.28.87,Spain,40,-4
,46.27.28.87,Spain,40,-4
,46.27.28.87,Spain,40,-4
,46.27.28.87,Spain,40,-4
,46.27.28.87,Spain,40,-4
,46.27.28.87,Spain,40,-4
,46.27.28.87,Spain,40,-4
,46.27.28.87,Spain,40,-4
,46.27.28.87,Spain,40,-4
,46.27.28.87,Spain,40,-4
,46.27.28.87,Spain,40,-4
,46.27.28.87,Spain,40,-4
,46.27.28.87,Spain,40,-4
,46.27.28.87,Spain,40,-4
,46.27.28.87,Spain,40,-4
,46.27.28.87,Spain,40,-4
,46.27.28.87,Spain,40,-4
,46.27.28.87,Spain,40,-4
Charlotte,143.165.48.50,United States,35.22710037,-80.8431015
,46.27.28.87,Spain,40,-4
,46.27.28.87,Spain,40,-4
,46.27.28.87,Spain,40,-4
,46.27.28.87,Spain,40,-4
,46.27.28.87,Spain,40,-4
,46.27.28.87,Spain,40,-4
,46.27.28.87,Spain,40,-4
,46.27.28.87,Spain,40,-4
,46.27.28.87,Spain,40,-4
,46.27.28.87,Spain,40,-4
,46.27.28.87,Spain,40,-4
,46.27.28.87,Spain,40,-4
,46.27.28.87,Spain,40,-4
,46.27.28.87,Spain,40,-4
,46.27.28.87,Spain,40,-4
,46.27.28.87,Spain,40,-4
,46.27.28.87,Spain,40,-4
,46.27.28.87,Spain,40,-4
,46.27.28.87,Spain,40,-4
,46.27.28.87,Spain,40,-4
,46.27.28.87,Spain,40,-4
,46.27.28.87,Spain,40,-4
,46.27.28.87,Spain,40,-4
,46.27.28.87,Spain,40,-4
,46.27.28.87,Spain,40,-4
,46.27.28.87,Spain,40,-4
,46.27.28.87,Spain,40,-4
,46.27.28.87,Spain,40,-4
,46.27.28.87,Spain,40,-4
,46.27.28.87,Spain,40,-4
,46.27.28.87,Spain,40,-4
,46.27.28.87,Spain,40,-4
,46.27.28.87,Spain,40,-4
,46.27.28.87,Spain,40,-4
,46.27.28.87,Spain,40,-4
,46.27.28.87,Spain,40,-4
Ashburn,54.227.93.32,United States,39.04370117,-77.48750305
Ashburn,54.227.93.32,United States,39.04370117,-77.48750305
Ashburn,54.227.93.32,United States,39.04370117,-77.48750305
Ashburn,54.227.93.32,United States,39.04370117,-77.48750305
Ashburn,54.227.93.32,United States,39.04370117,-77.48750305
Ashburn,54.227.93.32,United States,39.04370117,-77.48750305
Ashburn,54.227.93.32,United States,39.04370117,-77.48750305
Ashburn,54.227.93.32,United States,39.04370117,-77.48750305
Ashburn,54.227.93.32,United States,39.04370117,-77.48750305
Ashburn,54.227.93.32,United States,39.04370117,-77.48750305
Ashburn,54.227.93.32,United States,39.04370117,-77.48750305
Ashburn,54.227.93.32,United States,39.04370117,-77.48750305
Ashburn,54.227.93.32,United States,39.04370117,-77.48750305
Ashburn,54.227.93.32,United States,39.04370117,-77.48750305
Ashburn,54.227.93.32,United States,39.04370117,-77.48750305
Ashburn,54.227.93.32,United States,39.04370117,-77.48750305
Ashburn,54.227.93.32,United States,39.04370117,-77.48750305
Ashburn,54.227.93.32,United States,39.04370117,-77.48750305
Ashburn,54.227.93.32,United States,39.04370117,-77.48750305
Ashburn,54.227.93.32,United States,39.04370117,-77.48750305
Ashburn,54.227.93.32,United States,39.04370117,-77.48750305
Ashburn,54.227.93.32,United States,39.04370117,-77.48750305
Ashburn,54.227.93.32,United States,39.04370117,-77.48750305
Ashburn,54.227.93.32,United States,39.04370117,-77.48750305
Ashburn,54.227.93.32,United States,39.04370117,-77.48750305
Ashburn,54.227.93.32,United States,39.04370117,-77.48750305
Ashburn,54.227.93.32,United States,39.04370117,-77.48750305
Ashburn,54.227.93.32,United States,39.04370117,-77.48750305
Ashburn,54.227.93.32,United States,39.04370117,-77.48750305
Ashburn,54.227.93.32,United States,39.04370117,-77.48750305
Ashburn,54.227.93.32,United States,39.04370117,-77.48750305
Ashburn,54.227.93.32,United States,39.04370117,-77.48750305
Ashburn,54.227.93.32,United States,39.04370117,-77.48750305
Ashburn,54.227.93.32,United States,39.04370117,-77.48750305
Ashburn,54.227.93.32,United States,39.04370117,-77.48750305
Ashburn,54.227.93.32,United States,39.04370117,-77.48750305
Ashburn,54.227.93.32,United States,39.04370117,-77.48750305
Ashburn,54.227.93.32,United States,39.04370117,-77.48750305
Ashburn,54.227.93.32,United States,39.04370117,-77.48750305
Ashburn,54.227.93.32,United States,39.04370117,-77.48750305
Ashburn,54.227.93.32,United States,39.04370117,-77.48750305
Ashburn,54.227.93.32,United States,39.04370117,-77.48750305
Ashburn,54.227.93.32,United States,39.04370117,-77.48750305
Ashburn,54.227.93.32,United States,39.04370117,-77.48750305
Ashburn,54.227.93.32,United States,39.04370117,-77.48750305
Ashburn,54.227.93.32,United States,39.04370117,-77.48750305
Ashburn,54.227.93.32,United States,39.04370117,-77.48750305
Ashburn,54.227.93.32,United States,39.04370117,-77.48750305
Ashburn,54.227.93.32,United States,39.04370117,-77.48750305
Ashburn,54.227.93.32,United States,39.04370117,-77.48750305
Ashburn,54.227.93.32,United States,39.04370117,-77.48750305
Ashburn,54.227.93.32,United States,39.04370117,-77.48750305
Ashburn,54.227.93.32,United States,39.04370117,-77.48750305
Ashburn,54.227.93.32,United States,39.04370117,-77.48750305
Ashburn,54.227.93.32,United States,39.04370117,-77.48750305
Ashburn,54.227.93.32,United States,39.04370117,-77.48750305
Ashburn,54.227.93.32,United States,39.04370117,-77.48750305
Ashburn,54.227.93.32,United States,39.04370117,-77.48750305
Ashburn,54.227.93.32,United States,39.04370117,-77.48750305
Ashburn,54.227.93.32,United States,39.04370117,-77.48750305
Ashburn,54.227.93.32,United States,39.04370117,-77.48750305
Ashburn,54.227.93.32,United States,39.04370117,-77.48750305
Ashburn,54.227.93.32,United States,39.04370117,-77.48750305
Ashburn,54.227.93.32,United States,39.04370117,-77.48750305
Ashburn,54.227.93.32,United States,39.04370117,-77.48750305
Ashburn,54.227.93.32,United States,39.04370117,-77.48750305
Ashburn,54.227.93.32,United States,39.04370117,-77.48750305
Ashburn,54.227.93.32,United States,39.04370117,-77.48750305
Ashburn,54.227.93.32,United States,39.04370117,-77.48750305
Ashburn,54.227.93.32,United States,39.04370117,-77.48750305
Ashburn,54.227.93.32,United States,39.04370117,-77.48750305
Ashburn,54.227.93.32,United States,39.04370117,-77.48750305
Ashburn,54.227.93.32,United States,39.04370117,-77.48750305
Ashburn,54.227.93.32,United States,39.04370117,-77.48750305
Ashburn,54.227.93.32,United States,39.04370117,-77.48750305
Ashburn,54.227.93.32,United States,39.04370117,-77.48750305
Ashburn,54.227.93.32,United States,39.04370117,-77.48750305
Ashburn,54.227.93.32,United States,39.04370117,-77.48750305
Ashburn,54.227.93.32,United States,39.04370117,-77.48750305
Ashburn,54.227.93.32,United States,39.04370117,-77.48750305
Ashburn,54.227.93.32,United States,39.04370117,-77.48750305
Ashburn,54.227.93.32,United States,39.04370117,-77.48750305
Ashburn,54.227.93.32,United States,39.04370117,-77.48750305
Ashburn,54.227.93.32,United States,39.04370117,-77.48750305
Ashburn,54.227.93.32,United States,39.04370117,-77.48750305
Ashburn,54.227.93.32,United States,39.04370117,-77.48750305
Ashburn,54.227.93.32,United States,39.04370117,-77.48750305
Ashburn,54.227.93.32,United States,39.04370117,-77.48750305
Ashburn,54.227.93.32,United States,39.04370117,-77.48750305
Ashburn,54.227.93.32,United States,39.04370117,-77.48750305
Ashburn,54.227.93.32,United States,39.04370117,-77.48750305
Ashburn,54.227.93.32,United States,39.04370117,-77.48750305
Ashburn,54.227.93.32,United States,39.04370117,-77.48750305
Ashburn,54.227.93.32,United States,39.04370117,-77.48750305
Ashburn,54.227.93.32,United States,39.04370117,-77.48750305
Ashburn,54.227.93.32,United States,39.04370117,-77.48750305
Ashburn,54.227.93.32,United States,39.04370117,-77.48750305
Ashburn,54.227.93.32,United States,39.04370117,-77.48750305
Ashburn,54.227.93.32,United States,39.04370117,-77.48750305
Ashburn,54.227.93.32,United States,39.04370117,-77.48750305
Ashburn,54.227.93.32,United States,39.04370117,-77.48750305
Ashburn,54.227.93.32,United States,39.04370117,-77.48750305
Ashburn,54.227.93.32,United States,39.04370117,-77.48750305
Ashburn,54.227.93.32,United States,39.04370117,-77.48750305
Ashburn,54.227.93.32,United States,39.04370117,-77.48750305
Ashburn,54.227.93.32,United States,39.04370117,-77.48750305
Ashburn,54.227.93.32,United States,39.04370117,-77.48750305
Ashburn,54.227.93.32,United States,39.04370117,-77.48750305
Ashburn,54.227.93.32,United States,39.04370117,-77.48750305
Ashburn,54.227.93.32,United States,39.04370117,-77.48750305
Ashburn,54.227.93.32,United States,39.04370117,-77.48750305
Ashburn,54.227.93.32,United States,39.04370117,-77.48750305
Ashburn,54.227.93.32,United States,39.04370117,-77.48750305
Ashburn,54.227.93.32,United States,39.04370117,-77.48750305
Ashburn,54.227.93.32,United States,39.04370117,-77.48750305
Ashburn,54.227.93.32,United States,39.04370117,-77.48750305
Ashburn,54.227.93.32,United States,39.04370117,-77.48750305
Ashburn,54.227.93.32,United States,39.04370117,-77.48750305
Ashburn,54.227.93.32,United States,39.04370117,-77.48750305
Ashburn,54.227.93.32,United States,39.04370117,-77.48750305
Ashburn,54.227.93.32,United States,39.04370117,-77.48750305
Ashburn,54.227.93.32,United States,39.04370117,-77.48750305
Ashburn,54.227.93.32,United States,39.04370117,-77.48750305
Ashburn,54.227.93.32,United States,39.04370117,-77.48750305
Ashburn,54.227.93.32,United States,39.04370117,-77.48750305
Ashburn,54.227.93.32,United States,39.04370117,-77.48750305
Ashburn,54.227.93.32,United States,39.04370117,-77.48750305
Ashburn,54.227.93.32,United States,39.04370117,-77.48750305
Ashburn,54.227.93.32,United States,39.04370117,-77.48750305
Ashburn,54.227.93.32,United States,39.04370117,-77.48750305
Ashburn,54.227.93.32,United States,39.04370117,-77.48750305
Ashburn,54.227.93.32,United States,39.04370117,-77.48750305
Ashburn,54.227.93.32,United States,39.04370117,-77.48750305
Ashburn,54.227.93.32,United States,39.04370117,-77.48750305
Ashburn,54.227.93.32,United States,39.04370117,-77.48750305
Ashburn,54.227.93.32,United States,39.04370117,-77.48750305
Ashburn,54.227.93.32,United States,39.04370117,-77.48750305
Ashburn,54.227.93.32,United States,39.04370117,-77.48750305
Ashburn,54.227.93.32,United States,39.04370117,-77.48750305
Ashburn,54.227.93.32,United States,39.04370117,-77.48750305
Ashburn,54.227.93.32,United States,39.04370117,-77.48750305
Ashburn,54.227.93.32,United States,39.04370117,-77.48750305
Ashburn,54.227.93.32,United States,39.04370117,-77.48750305
Ashburn,54.227.93.32,United States,39.04370117,-77.48750305
